OBJECT_NAME,OBJECT_ID,EPOCH,MEAN_MOTION,ECCENTRICITY,INCLINATION,RA_OF_ASC_NODE,ARG_OF_PERICENTER,MEAN_ANOMALY,EPHEMERIS_TYPE,CLASSIFICATION_TYPE,NORAD_CAT_ID,ELEMENT_SET_NO,REV_AT_EPOCH,BSTAR,MEAN_MOTION_DOT,MEAN_MOTION_DDOT
INTELSAT 902 (IS-902),2001-039A,2026-07-13T02:28:01.879392,1.00270527,.0004427,6.1801,71.4647,37.8102,168.6068,0,U,26900,999,9095,0,-.291E-5,0
INTELSAT 904 (IS-904),2002-007A,2026-07-12T23:37:33.862944,1.00271153,.0005373,6.9819,68.8712,24.1748,160.7451,0,U,27380,999,5202,0,-.233E-5,0
DIRECTV 5 (TEMPO 1),2002-023A,2026-07-13T05:45:12.297024,1.00271113,.0003029,4.9418,74.9842,43.7713,148.5519,0,U,27426,999,8838,0,-.64E-6,0
INTELSAT 905 (IS-905),2002-027A,2026-07-13T05:30:49.529088,1.00271272,.0003453,6.8165,69.4825,44.6612,122.4630,0,U,27438,999,5162,0,.85E-6,0
GALAXY 3C (G-3C),2002-030A,2026-07-13T03:17:38.652288,1.00270623,.0001495,3.7981,77.6387,36.4860,131.4738,0,U,27445,999,4675,0,-.158E-5,0
INTELSAT 906 (IS-906),2002-041A,2026-07-13T03:30:16.756992,1.00272727,.0003881,5.8661,72.6011,22.4054,312.7310,0,U,27513,999,8728,0,.5E-7,0
GALAXY 13 (HORIZONS-1),2003-044A,2026-07-13T04:25:47.470944,1.00270387,.0002161,1.4843,83.5332,26.2199,97.7457,0,U,27954,999,4683,0,.129E-5,0
INTELSAT 10-02,2004-022A,2026-07-12T23:46:16.586400,1.00271565,.0000516,0.0534,251.1781,344.4139,50.8437,0,U,28358,999,8081,0,-.12E-6,0
DIRECTV 8,2005-019A,2026-07-13T04:39:12.515904,1.00271183,.0003029,0.0136,336.6178,150.7355,114.4679,0,U,28659,999,7733,0,-.1E-7,0
GALAXY 28 (G-28),2005-022A,2026-07-13T03:04:11.755776,1.00270707,.0002312,3.3632,78.6147,31.8600,199.4733,0,U,28702,999,5223,0,-.206E-5,0
GALAXY 16 (G-16),2006-023A,2026-07-12T19:52:53.842080,1.00271154,.0002438,0.0377,111.3355,11.0191,7.5822,0,U,29236,999,7323,0,-.127E-5,0
DIRECTV 9S,2006-043A,2026-07-13T04:48:48.777984,1.00270976,.0004988,2.4854,80.5889,33.4030,148.0893,0,U,29494,999,5164,0,-.118E-5,0
GALAXY 17 (G-17),2007-016B,2026-07-13T04:57:15.260832,1.00270256,.0003551,3.0350,79.5724,34.4016,166.3960,0,U,31307,999,7006,0,-.211E-5,0
INTELSAT 11 (IS-11),2007-044B,2026-07-13T04:07:38.735040,0.99051540,.0004113,3.6306,78.3535,100.6767,185.4146,0,U,32253,999,6870,0,-.115E-5,0
HORIZONS-2,2007-063B,2026-07-13T05:02:59.188128,1.00269810,.000353,2.6667,80.3066,19.0126,193.7140,0,U,32388,999,6807,0,-.258E-5,0
DIRECTV 11,2008-013A,2026-07-13T01:01:01.130016,1.00271885,.0000175,0.0111,275.1763,318.2318,333.5856,0,U,32729,999,4585,0,-.127E-5,0
GALAXY 18 (G-18),2008-024A,2026-07-13T04:37:16.954176,1.00270868,.0002801,0.0044,110.0610,15.6797,111.6473,0,U,32951,999,4611,0,.23E-6,0
GALAXY 19 (G-19),2008-045A,2026-07-12T21:36:17.781120,1.00272027,.0002327,0.0537,238.0715,244.2537,35.5304,0,U,33376,999,6516,0,-.14E-5,0
FM-5,2009-034A,2026-07-12T21:39:24.983136,1.00271288,.0000669,0.0416,268.2075,72.2071,189.0649,0,U,35493,999,4690,0,-.201E-5,0
INTELSAT 14 (IS-14),2009-064A,2026-07-13T02:59:04.748064,1.00270601,.0002221,0.0155,42.2389,77.1990,171.3472,0,U,36097,999,6086,0,-.276E-5,0
INTELSAT 15 (IS-15),2009-067A,2026-07-13T01:53:33.282816,1.00270942,.0002086,0.0181,63.3706,57.6509,283.4798,0,U,36106,999,4148,0,-.187E-5,0
DIRECTV 12,2009-075A,2026-07-12T21:34:40.436832,1.00271042,.0000376,0.0059,118.1538,110.5275,283.0374,0,U,36131,999,4681,0,-.104E-5,0
INTELSAT 16 (IS-16),2010-006A,2026-07-13T05:09:42.594912,1.00270525,.0002284,0.0081,31.6124,105.2011,155.5041,0,U,36397,999,5991,0,-.247E-5,0
XM-5,2010-053A,2026-07-13T02:39:04.314240,1.00270919,.000174,0.0652,265.2109,322.2287,348.1238,0,U,37185,999,5774,0,-.25E-6,0
INTELSAT 17 (IS-17),2010-065B,2026-07-13T03:30:46.710144,1.00269859,.0002523,0.0144,200.5713,279.1013,290.0437,0,U,37238,999,5350,0,-.3E-7,0
INTELSAT 28 (IS-28),2011-016A,2026-07-13T03:02:49.388064,1.00271450,.0003679,1.8708,82.3004,39.6248,183.0694,0,U,37392,999,5354,0,-.229E-5,0
INTELSAT 18 (IS-18),2011-056A,2026-07-13T02:20:30.700320,1.00269916,.0001643,0.0149,317.8546,166.0971,22.1509,0,U,37834,999,5407,0,.51E-6,0
INTELSAT 22 (IS-22),2012-011A,2026-07-13T03:32:31.540992,1.00271280,.0001965,0.0433,72.9648,61.2703,282.0176,0,U,38098,999,744,0,0,0
INTELSAT 19 (IS-19),2012-030A,2026-07-13T02:16:38.571168,1.00271181,.000306,0.0120,58.0489,67.3891,5.6958,0,U,38356,999,5071,0,-.59E-6,0
INTELSAT 20 (IS-20),2012-043A,2026-07-13T03:31:24.148992,1.00272711,.0001305,0.0122,63.4914,108.1352,240.7506,0,U,38740,999,5100,0,-.27E-6,0
INTELSAT 21 (IS-21),2012-045A,2026-07-13T02:55:20.107200,1.00275983,.0001702,0.0180,36.3687,85.8183,154.6640,0,U,38749,999,5078,0,-.287E-5,0
